{
  "type": "Feature",
  "geometry": {
    "type": "Point",
    "coordinates": [
      72.29,
      18.865
    ]
  },
  "properties": {
    "case_id": "c0000000-0000-0000-0000-000000000001",
    "origin_centroid": [
      72.29,
      18.865
    ],
    "covariance_matrix": {
      "var_lon": 0.000185,
      "var_lat": 0.000142,
      "cov_lon_lat": 9.5e-05
    },
    "time_window_start": "2026-09-06T16:30:00+00:00",
    "time_window_end": "2026-09-06T19:30:00+00:00",
    "confidence_pct": 89.2,
    "region_area_km2": 18.4,
    "data_source": "synthetic"
  }
}