{
  "type": "Feature",
  "geometry": {
    "type": "Polygon",
    "coordinates": [
      [
        [
          72.443454,
          18.979146
        ],
        [
          72.442957,
          18.979265
        ],
        [
          72.442387,
          18.979216
        ],
        [
          72.441752,
          18.978998
        ],
        [
          72.441062,
          18.978612
        ],
        [
          72.440326,
          18.978061
        ],
        [
          72.439553,
          18.977349
        ],
        [
          72.438752,
          18.976482
        ],
        [
          72.437932,
          18.975468
        ],
        [
          72.437101,
          18.974316
        ],
        [
          72.436267,
          18.973039
        ],
        [
          72.435437,
          18.971647
        ],
        [
          72.434617,
          18.970157
        ],
        [
          72.433814,
          18.968583
        ],
        [
          72.433031,
          18.966941
        ],
        [
          72.432274,
          18.965248
        ],
        [
          72.431547,
          18.963523
        ],
        [
          72.430852,
          18.961783
        ],
        [
          72.430195,
          18.960047
        ],
        [
          72.429577,
          18.958332
        ],
        [
          72.429002,
          18.956657
        ],
        [
          72.428472,
          18.955039
        ],
        [
          72.42799,
          18.953494
        ],
        [
          72.42756,
          18.952038
        ],
        [
          72.427184,
          18.950686
        ],
        [
          72.426867,
          18.94945
        ],
        [
          72.42661,
          18.948343
        ],
        [
          72.426419,
          18.947375
        ],
        [
          72.426295,
          18.946553
        ],
        [
          72.426243,
          18.945886
        ],
        [
          72.426266,
          18.945378
        ],
        [
          72.426366,
          18.945033
        ],
        [
          72.426546,
          18.944854
        ],
        [
          72.426807,
          18.944839
        ],
        [
          72.427151,
          18.944988
        ],
        [
          72.427576,
          18.945298
        ],
        [
          72.428084,
          18.945764
        ],
        [
          72.428669,
          18.946382
        ],
        [
          72.429331,
          18.947143
        ],
        [
          72.430063,
          18.948041
        ],
        [
          72.43086,
          18.949065
        ],
        [
          72.431713,
          18.950207
        ],
        [
          72.432616,
          18.951454
        ],
        [
          72.433558,
          18.952796
        ],
        [
          72.434528,
          18.95422
        ],
        [
          72.435515,
          18.955713
        ],
        [
          72.436506,
          18.957263
        ],
        [
          72.43749,
          18.958856
        ],
        [
          72.438453,
          18.960477
        ],
        [
          72.439383,
          18.962113
        ],
        [
          72.440268,
          18.963749
        ],
        [
          72.441095,
          18.965372
        ],
        [
          72.441853,
          18.966966
        ],
        [
          72.442533,
          18.968518
        ],
        [
          72.443127,
          18.970013
        ],
        [
          72.443626,
          18.971439
        ],
        [
          72.444024,
          18.972781
        ],
        [
          72.444319,
          18.974027
        ],
        [
          72.444506,
          18.975164
        ],
        [
          72.444586,
          18.976182
        ],
        [
          72.44456,
          18.97707
        ],
        [
          72.444428,
          18.977818
        ],
        [
          72.444197,
          18.978418
        ],
        [
          72.44387,
          18.978863
        ],
        [
          72.443454,
          18.979146
        ]
      ]
    ]
  },
  "properties": {
    "case_id": "c0000000-0000-0000-0000-000000000001",
    "sensor": "Sentinel-1 SAR IW GRD",
    "detection_time": "2026-09-07T06:00:00+00:00",
    "centroid": {
      "type": "Point",
      "coordinates": [
        72.435,
        18.962
      ]
    },
    "area_m2": 2420000.0,
    "confidence": 91.5,
    "lookalike_risk": 0.04,
    "damping_ratio_db": 8.6,
    "data_source": "synthetic"
  }
}